COSMOS 2361 [-]         
1 25590U 98076A   22312.42925432  .00000055  00000+0  42818-4 0  9998
2 25590  82.9315  99.7393 0031877 166.0927 247.8335 13.73033194195997
COSMOS 2378 [-]         
1 26818U 01023A   22312.03256535  .00000049  00000+0  35534-4 0  9996
2 26818  82.9242 117.8172 0034174 114.3628  19.9842 13.73978759 74020
COSMOS 2389 [-]         
1 27436U 02026A   22312.37056834  .00000052  00000+0  38893-4 0  9999
2 27436  82.9523  63.5005 0045742 335.6774  83.3350 13.74986199 26141
COSMOS 2398 [-]         
1 27818U 03023A   22312.29030547  .00000072  00000+0  61773-4 0  9990
2 27818  82.9522  25.6260 0031585  14.9909  46.5385 13.72221577973110
COSMOS 2407 [+]         
1 28380U 04028A   22312.47155597  .00000112  00000+0  99557-4 0  9990
2 28380  82.9609 329.8093 0038858 336.8467  23.0991 13.76125970918968
COSMOS 2414 [+]         
1 28521U 05002A   22312.38701381  .00000073  00000+0  47467-4 0  9997
2 28521  82.9473 319.4148 0041544 122.6699 237.8483 13.87672610901204
COSMOS 2429 [-]         
1 32052U 07038A   22312.38520674  .00000052  00000+0  38486-4 0  9994
2 32052  82.9783  96.2693 0037442 313.7002  46.1054 13.74974301760688
COSMOS 2454 [-]         
1 35635U 09039A   22312.39099708  .00000080  00000+0  51948-4 0  9996
2 35635  82.9528 305.4871 0020661  68.4015  42.2234 13.89700427674493
COSMOS 2463 [+]         
1 36519U 10017A   22312.45161609  .00000068  00000+0  58650-4 0  9996
2 36519  82.9576 137.0576 0036127 181.5036 260.6343 13.71484391627432
